NORAD_CAT_ID,OBJECT_NAME,OBJECT_TYPE,EPOCH,MEAN_MOTION,ECCENTRICITY,INCLINATION,RA_OF_ASC_NODE,ARG_OF_PERICENTER,MEAN_ANOMALY,BSTAR,MEAN_MOTION_DOT,MEAN_MOTION_DDOT,TLE_LINE0,TLE_LINE1,TLE_LINE2,SEMIMAJOR_AXIS,PERIOD,APOGEE,PERIGEE,DECAYED
52295.0,STARLINK-3765,PAYLOAD,2022-10-03 13:27:56,15.08841579,0.0001876999999999,53.2166,324.6233,44.7029,315.4114,3.7923e-05,3.15e-06,0.0,0 STARLINK-3765,1 52295U 22041AL  22276.56107524  .00000315  00000-0  37923-4 0  9998,2 52295  53.2166 324.6233 0001877  44.7029 315.4114 15.08841579 25329,6917.876,95.437,541.039,538.442,0.0
52295.0,STARLINK-3765,PAYLOAD,2022-10-03 19:49:28,15.088509900000002,0.0001889,53.2173,323.4343,45.282,314.8325,8.2941e-05,1.032e-05,0.0,0 STARLINK-3765,1 52295U 22041AL  22276.82602700  .00001032  00000-0  82941-4 0  9990,2 52295  53.2173 323.4343 0001889  45.2820 314.8325 15.08850990 26587,6917.847,95.437,541.019,538.405,0.0
52295.0,STARLINK-3765,PAYLOAD,2022-10-04 10:07:58,15.08828396,0.0001709,53.2163,320.7593,41.1101,319.0019,0.00011279,1.507e-05,0.0,0 STARLINK-3765,1 52295U 22041AL  22277.42219947  .00001507  00000-0  11279-3 0  9996,2 52295  53.2163 320.7593 0001709  41.1101 319.0019 15.08828396 25458,6917.916,95.438,540.9630000000002,538.599,0.0
52295.0,STARLINK-3765,PAYLOAD,2022-10-05 02:01:49,15.08836581,0.0001865999999999,53.2169,317.7841,44.3236,315.7905,0.00011366,1.521e-05,0.0,0 STARLINK-3765,1 52295U 22041AL  22278.08459710  .00001521  00000-0  11366-3 0  9996,2 52295  53.2169 317.7841 0001866  44.3236 315.7905 15.08836581 26772,6917.891,95.438,541.047,538.465,0.0
52295.0,STARLINK-3765,PAYLOAD,2022-10-05 11:34:08,15.08838314,0.0001549,53.2167,315.9959,59.0341,301.0803,-9.9333e-05,-1.868e-05,0.0,0 STARLINK-3765,1 52295U 22041AL  22278.48204390 -.00001868  00000-0 -99333-4 0  9999,2 52295  53.2167 315.9959 0001549  59.0341 301.0803 15.08838314 25611,6917.886,95.438,540.822,538.679,0.0
52295.0,STARLINK-3765,PAYLOAD,2022-10-05 13:09:31,15.08838176,0.0001932,53.2171,315.6992,40.6804,319.4332,-6.1043e-05,-1.26e-05,0.0,0 STARLINK-3765,1 52295U 22041AL  22278.54828354 -.00001260  00000-0 -61043-4 0  9991,2 52295  53.2171 315.6992 0001932  40.6804 319.4332 15.08838176 26848,6917.886,95.438,541.087,538.414,0.0
52295.0,STARLINK-3765,PAYLOAD,2022-10-06 11:24:55,15.08839539,0.0001919,53.2168,311.5351,46.096,314.0191,5.6273e-05,6.08e-06,0.0,0 STARLINK-3765,1 52295U 22041AL  22279.47563877  .00000608  00000-0  56273-4 0  9992,2 52295  53.2168 311.5351 0001919  46.0960 314.0191 15.08839539 25764,6917.882,95.438,541.0740000000002,538.419,0.0
52295.0,STARLINK-3765,PAYLOAD,2022-10-06 19:21:50,15.08847659,0.0002012,53.2175,310.0496,45.8764,314.2393,8.742799999999999e-05,1.104e-05,0.0,0 STARLINK-3765,1 52295U 22041AL  22279.80683236  .00001104  00000-0  87428-4 0  9999,2 52295  53.2175 310.0496 0002012  45.8764 314.2393 15.08847659 25814,6917.857,95.437,541.114,538.33,0.0
52295.0,STARLINK-3765,PAYLOAD,2022-10-07 01:43:23,15.088387699999998,0.0002068,53.2171,308.8616,46.0459,314.0704,0.00012116,1.641e-05,0.0,0 STARLINK-3765,1 52295U 22041AL  22280.07179540  .00001641  00000-0  12116-3 0  9995,2 52295  53.2171 308.8616 0002068  46.0459 314.0704 15.08838770 27072,6917.884,95.438,541.18,538.319,0.0
52295.0,STARLINK-3765,PAYLOAD,2022-10-07 09:40:18,15.08835217,0.000206,53.2162,307.3767,40.2961,319.8183,0.00012301,1.67e-05,0.0,0 STARLINK-3765,1 52295U 22041AL  22280.40299724  .00001670  00000-0  12301-3 0  9997,2 52295  53.2162 307.3767 0002060  40.2961 319.8183 15.08835217 25906,6917.895,95.438,541.185,538.335,0.0
52295.0,STARLINK-3765,PAYLOAD,2022-10-07 19:12:38,15.08836007,0.0002084,53.2162,305.5926,43.9336,316.1821,2.6145e-05,1.28e-06,0.0,0 STARLINK-3765,1 52295U 22041AL  22280.80044068  .00000128  00000-0  26145-4 0  9999,2 52295  53.2162 305.5926 0002084  43.9336 316.1821 15.08836007 27184,6917.893,95.438,541.1990000000002,538.316,0.0
52295.0,STARLINK-3765,PAYLOAD,2022-10-08 11:06:29,15.08834451,0.0001995,53.2169,302.6179,46.4149,313.7009,-5.587e-05,-1.177e-05,0.0,0 STARLINK-3765,1 52295U 22041AL  22281.46284595 -.00001177  00000-0 -55870-4 0  9997,2 52295  53.2169 302.6179 0001995  46.4149 313.7009 15.08834451 26067,6917.897,95.438,541.1419999999998,538.382,0.0
52295.0,STARLINK-3765,PAYLOAD,2022-10-09 04:35:43,15.08853013,0.0002386,53.2168,299.3468,51.982,308.1387,-0.00018115,-3.171e-05,0.0,0 STARLINK-3765,1 52295U 22041AL  22282.19147937 -.00003171  00000-0 -18115-3 0  9992,2 52295  53.2168 299.3468 0002386  51.9820 308.1387 15.08853013 27390,6917.840999999999,95.437,541.356,538.055,0.0
52295.0,STARLINK-3765,PAYLOAD,2022-10-09 10:57:16,15.08844259,0.0001878,53.2171,298.1566,47.3618,312.7532,-2.5026e-05,-6.86e-06,0.0,0 STARLINK-3765,1 52295U 22041AL  22282.45643853 -.00000686  00000-0 -25026-4 0  9997,2 52295  53.2171 298.1566 0001878  47.3618 312.7532 15.08844259 26214,6917.8669999999975,95.437,541.0319999999998,538.433,0.0
52295.0,STARLINK-3765,PAYLOAD,2022-10-09 12:32:39,15.08846987,0.0001947,53.2173,297.8597,45.3291,314.7859,-2.0802e-05,-6.19e-06,0.0,0 STARLINK-3765,1 52295U 22041AL  22282.52267657 -.00000619  00000-0 -20802-4 0  9992,2 52295  53.2173 297.8597 0001947  45.3291 314.7859 15.08846987 26223,6917.859,95.437,541.071,538.377,0.0
52295.0,STARLINK-3765,PAYLOAD,2022-10-10 06:01:53,15.08836748,0.0001774999999999,53.2166,294.5885,42.1141,317.9987,8.059e-05,9.95e-06,0.0,0 STARLINK-3765,1 52295U 22041AL  22283.25131808  .00000995  00000-0  80590-4 0  9996,2 52295  53.2166 294.5885 0001775  42.1141 317.9987 15.08836748 27555,6917.89,95.438,540.9830000000002,538.5269999999998,0.0
52295.0,STARLINK-3765,PAYLOAD,2022-10-10 10:48:03,15.08832912,0.0001858,53.2165,293.6968,39.1911,320.9215,5.3012e-05,5.56e-06,0.0,0 STARLINK-3765,1 52295U 22041AL  22283.45004203  .00000556  00000-0  53012-4 0  9998,2 52295  53.2165 293.6968 0001858  39.1911 320.9215 15.08832912 26364,6917.901999999999,95.438,541.052,538.482,0.0
52295.0,STARLINK-3765,PAYLOAD,2022-10-11 04:17:18,15.08832032,0.000181,53.2164,290.4261,41.3204,318.7925,-4.4135e-05,-9.9e-06,0.0,0 STARLINK-3765,1 52295U 22041AL  22284.17868841 -.00000990  00000-0 -44135-4 0  9994,2 52295  53.2164 290.4261 0001810  41.3204 318.7925 15.08832032 27695,6917.905,95.438,541.0219999999998,538.518,0.0
52295.0,STARLINK-3765,PAYLOAD,2022-10-11 10:38:51,15.08825864,0.0001923,53.2168,289.2375,41.3308,318.7829,-8.3867e-05,-1.622e-05,0.0,0 STARLINK-3765,1 52295U 22041AL  22284.44365533 -.00001622  00000-0 -83867-4 0  9992,2 52295  53.2168 289.2375 0001923  41.3308 318.7829 15.08825864 27734,6917.924,95.438,541.119,538.4580000000002,0.0
52295.0,STARLINK-3765,PAYLOAD,2022-10-12 04:08:06,15.08830806,0.0001814,53.2167,285.9662,40.6223,319.4904,-2.8889e-05,-7.48e-06,0.0,0 STARLINK-3765,1 52295U 22041AL  22285.17229391 -.00000748  00000-0 -28889-4 0  9995,2 52295  53.2167 285.9662 0001814  40.6223 319.4904 15.08830806 27848,6917.908,95.438,541.028,538.519,0.0
52295.0,STARLINK-3765,PAYLOAD,2022-10-12 08:54:15,15.08837123,0.0001843,53.2165,285.0739,41.0869,319.0261,2.5028e-05,1.1e-06,0.0,0 STARLINK-3765,1 52295U 22041AL  22285.37100899  .00000110  00000-0  25028-4 0  9991,2 52295  53.2165 285.0739 0001843  41.0869 319.0261 15.08837123 27879,6917.889,95.438,541.029,538.479,0.0
52295.0,STARLINK-3765,PAYLOAD,2022-10-12 16:51:11,15.08830746,0.0001859,53.2161,283.5862,40.9299,319.1832,-2.6451e-05,-7.09e-06,0.0,0 STARLINK-3765,1 52295U 22041AL  22285.70221627 -.00000709  00000-0 -26451-4 0  9998,2 52295  53.2161 283.5862 0001859  40.9299 319.1832 15.08830746 26707,6917.909000000002,95.438,541.06,538.488,0.0
52295.0,STARLINK-3765,PAYLOAD,2022-10-13 08:45:03,15.08828001,0.0001588999999999,53.2157,280.6108,40.9728,319.1383,1.8517e-05,7e-08,0.0,0 STARLINK-3765,1 52295U 22041AL  22286.36461967  .00000007  00000-0  18517-4 0  9997,2 52295  53.2157 280.6108 0001589  40.9728 319.1383 15.08828001 26803,6917.917,95.438,540.881,538.683,0.0
52295.0,STARLINK-3765,PAYLOAD,2022-10-13 16:41:58,15.0883296,0.000162,53.2158,279.1237,41.1268,318.9846,6.2358e-05,7.04e-06,0.0,0 STARLINK-3765,1 52295U 22041AL  22286.69581700  .00000704  00000-0  62358-4 0  9997,2 52295  53.2158 279.1237 0001620  41.1268 318.9846 15.08832960 26853,6917.901999999999,95.438,540.888,538.646,0.0
52295.0,STARLINK-3765,PAYLOAD,2022-10-14 05:25:03,15.08844574,0.0001753,53.2159,276.7455,40.8633,319.2491,6.6041e-05,7.63e-06,0.0,0 STARLINK-3765,1 52295U 22041AL  22287.22573166  .00000763  00000-0  66041-4 0  9992,2 52295  53.2159 276.7455 0001753  40.8633 319.2491 15.08844574 28157,6917.866,95.437,540.944,538.519,0.0
52295.0,STARLINK-3765,PAYLOAD,2022-10-14 11:46:35,15.08840455,0.0001657,53.2167,275.5573,50.5312,309.5826,6.277e-05,7.11e-06,0.0,0 STARLINK-3765,1 52295U 22041AL  22287.49069409  .00000711  00000-0  62770-4 0  9999,2 52295  53.2167 275.5573 0001657  50.5312 309.5826 15.08840455 26975,6917.879,95.438,540.89,538.5980000000002,0.0
52295.0,STARLINK-3765,PAYLOAD,2022-10-14 16:32:45,15.08842856,0.0001892,53.2164,274.6648,47.4137,312.7014,7.912300000000001e-05,9.71e-06,0.0,0 STARLINK-3765,1 52295U 22041AL  22287.68941257  .00000971  00000-0  79123-4 0  9998,2 52295  53.2164 274.6648 0001892  47.4137 312.7014 15.08842856 27003,6917.871999999999,95.437,541.0459999999998,538.428,0.0
52295.0,STARLINK-3765,PAYLOAD,2022-10-15 08:26:36,15.08844256,0.0001728,53.2162,271.6892,49.3158,310.7984,0.00011903,1.607e-05,0.0,0 STARLINK-3765,1 52295U 22041AL  22288.35180723  .00001607  00000-0  11903-3 0  9994,2 52295  53.2162 271.6892 0001728  49.3158 310.7984 15.08844256 27102,6917.8669999999975,95.437,540.928,538.5369999999998,0.0
52295.0,STARLINK-3765,PAYLOAD,2022-10-16 09:52:47,15.08827523,0.0001839,53.217,266.9324,47.5225,312.5922,-0.00010312,-1.928e-05,0.0,0 STARLINK-3765,1 52295U 22041AL  22289.41165992 -.00001928  00000-0 -10312-3 0  9994,2 52295  53.2170 266.9324 0001839  47.5225 312.5922 15.08827523 28488,6917.919,95.438,541.056,538.511,0.0
